NORAD_CAT_ID,OBJECT_NAME,OBJECT_TYPE,EPOCH,MEAN_MOTION,ECCENTRICITY,INCLINATION,RA_OF_ASC_NODE,ARG_OF_PERICENTER,MEAN_ANOMALY,BSTAR,MEAN_MOTION_DOT,MEAN_MOTION_DDOT,TLE_LINE0,TLE_LINE1,TLE_LINE2,SEMIMAJOR_AXIS,PERIOD,APOGEE,PERIGEE,DECAYED
54099.0,STARLINK-5198,PAYLOAD,2022-12-09 16:00:00,15.50194157,0.000114,53.2173,260.9227,79.2983,99.5795,-0.0076882999999999,-0.00418829,0.0,0 STARLINK-5198,1 54099U 22136BA  22343.66667824 -.00418829  00000-0 -76883-2 0  9998,2 54099  53.2173 260.9227 0001140  79.2983  99.5795 15.50194157  8361,6794.295999999999,92.892,416.935,415.386,0.0
54099.0,STARLINK-5198,PAYLOAD,2022-12-10 00:00:00,15.49974168,0.0001321,53.2156,259.3352,88.2041,151.7526,-0.0013192,-0.00074847,0.0,0 STARLINK-5198,1 54099U 22136BA  22344.00001157 -.00074847  00000-0 -13192-2 0  9990,2 54099  53.2156 259.3352 0001321  88.2041 151.7526 15.49974168  8414,6794.939,92.905,417.701,415.906,0.0
54099.0,STARLINK-5198,PAYLOAD,2022-12-10 08:00:01,15.49817907,0.0001295,53.2159,257.7401,83.655,217.3842,0.00035728,0.0001983,0.0,0 STARLINK-5198,1 54099U 22136BA  22344.33335648  .00019830  00000-0  35728-3 0  9990,2 54099  53.2159 257.7401 0001295  83.6550 217.3842 15.49817907  8471,6795.395,92.914,418.14,416.38,0.0
54099.0,STARLINK-5198,PAYLOAD,2022-12-10 14:00:01,15.49864104,0.0001145,53.2173,256.5423,94.875,161.7091,0.00064235,0.00036147,0.0,0 STARLINK-5198,1 54099U 22136BA  22344.58334491  .00036147  00000-0  64235-3 0  9997,2 54099  53.2173 256.5423 0001145  94.8750 161.7091 15.49864104  1302,6795.26,92.911,417.903,416.347,0.0
54099.0,STARLINK-5198,PAYLOAD,2022-12-10 22:00:00,15.49876788,0.0001413,53.2145,254.9551,93.115,224.4823,-0.00033747,-0.00019551,0.0,0 STARLINK-5198,1 54099U 22136BA  22344.91667824 -.00019551  00000-0 -33747-3 0  9999,2 54099  53.2145 254.9551 0001413  93.1150 224.4823 15.49876788  1300,6795.223000000001,92.911,418.048,416.128,0.0
54099.0,STARLINK-5198,PAYLOAD,2022-12-11 00:00:00,15.49869855,0.0001411,53.2145,254.5571,89.1775,333.6519,5.4091e-05,2.618e-05,0.0,0 STARLINK-5198,1 54099U 22136BA  22345.00001157  .00002618  00000-0  54091-4 0  9991,2 54099  53.2145 254.5571 0001411  89.1775 333.6519 15.49869855  8572,6795.243,92.911,418.067,416.15,0.0
54099.0,STARLINK-5198,PAYLOAD,2022-12-11 08:00:01,15.50015598,0.0001374,53.2158,252.9616,76.5631,47.1998,-0.011606,-0.0061284999999999,0.0,0 STARLINK-5198,1 54099U 22136BA  22345.33335648 -.00612850  00000-0 -11606-1 0  9991,2 54099  53.2158 252.9616 0001374  76.5631  47.1998 15.50015598  8620,6794.816999999999,92.902,417.616,415.749,0.0
54099.0,STARLINK-5198,PAYLOAD,2022-12-11 14:00:01,15.497676,0.0001258,53.2169,251.7636,93.4461,345.8945,-0.016051,-0.00830121,0.0,0 STARLINK-5198,1 54099U 22136BA  22345.58334491 -.00830121  00000-0 -16051-1 0  9995,2 54099  53.2169 251.7636 0001258  93.4461 345.8945 15.49767600  1305,6795.542,92.917,418.262,416.552,0.0
54099.0,STARLINK-5198,PAYLOAD,2022-12-11 22:00:01,15.49165892,0.0001244,53.2174,250.171,85.8551,53.9751,-0.02258,-0.01126993,0.0,0 STARLINK-5198,1 54099U 22136BA  22345.91668981 -.01126993  00000-0 -22580-1 0  9996,2 54099  53.2174 250.1710 0001244  85.8551  53.9751 15.49165892  8716,6797.302,92.953,420.012,418.321,0.0
54099.0,STARLINK-5198,PAYLOAD,2022-12-12 14:00:01,15.47537397,0.0001271,53.2174,246.9911,109.6414,148.2523,-0.023858,-0.01141207,0.0,0 STARLINK-5198,1 54099U 22136BA  22346.58334491 -.01141207  00000-0 -23858-1 0  9990,2 54099  53.2174 246.9911 0001271 109.6414 148.2523 15.47537397  1309,6802.07,93.051,424.799,423.07,0.0
54099.0,STARLINK-5198,PAYLOAD,2022-12-12 16:00:01,15.47333368,0.0001099,53.2173,246.594,105.7584,256.691,-0.024023,-0.01140908,0.0,0 STARLINK-5198,1 54099U 22136BA  22346.66668981 -.01140908  00000-0 -24023-1 0  9995,2 54099  53.2173 246.5940 0001099 105.7584 256.6910 15.47333368  8830,6802.668000000002,93.063,425.28,423.785,0.0
54099.0,STARLINK-5198,PAYLOAD,2022-12-12 22:00:00,15.4674509,0.0001349,53.2169,245.4066,119.6784,195.8006,-0.025228,-0.01171043,0.0,0 STARLINK-5198,1 54099U 22136BA  22346.91667824 -.01171043  00000-0 -25228-1 0  9990,2 54099  53.2169 245.4066 0001349 119.6784 195.8006 15.46745090  1309,6804.392,93.099,427.175,425.339,0.0
54099.0,STARLINK-5198,PAYLOAD,2022-12-13 14:00:01,15.45096281,0.0001087,53.2174,242.2374,97.4016,330.349,-0.025976,-0.01141524,0.0,0 STARLINK-5198,1 54099U 22136BA  22347.58334491 -.01141524  00000-0 -25976-1 0  9996,2 54099  53.2174 242.2374 0001087  97.4016 330.3490 15.45096281  8975,6809.232,93.198,431.837,430.357,0.0
54099.0,STARLINK-5198,PAYLOAD,2022-12-13 22:00:00,15.44283036,0.0001229,53.2175,240.6583,90.03299999999999,32.3797,-0.026722,-0.01141997,0.0,0 STARLINK-5198,1 54099U 22136BA  22347.91667824 -.01141997  00000-0 -26722-1 0  9996,2 54099  53.2175 240.6583 0001229  90.0330  32.3797 15.44283036  1300,6811.623000000001,93.247,434.325,432.65,0.0
54099.0,STARLINK-5198,PAYLOAD,2022-12-14 06:00:00,15.43470619,0.0001281999999999,53.2172,239.0798,93.0875,83.0098,-0.027514,-0.01143577,0.0,0 STARLINK-5198,1 54099U 22136BA  22348.25001157 -.01143577  00000-0 -27514-1 0  9991,2 54099  53.2172 239.0798 0001282  93.0875  83.0098 15.43470619  9076,6814.013000000001,93.296,436.751,435.004,0.0
54099.0,STARLINK-5198,PAYLOAD,2022-12-14 14:00:01,15.4265717,0.0001261,53.2169,237.5022,91.8774,136.9275,-0.028289,-0.0114377,0.0,0 STARLINK-5198,1 54099U 22136BA  22348.58334491 -.01143770  00000-0 -28289-1 0  9992,2 54099  53.2169 237.5022 0001261  91.8774 136.9275 15.42657170  1307,6816.408,93.345,439.132,437.413,0.0
54099.0,STARLINK-5198,PAYLOAD,2022-12-14 22:00:00,15.41846813,0.0001301,53.2169,235.9287,117.278,163.2542,-0.02919,-0.01147996,0.0,0 STARLINK-5198,1 54099U 22136BA  22348.91667824 -.01147996  00000-0 -29190-1 0  9994,2 54099  53.2169 235.9287 0001301 117.2780 163.2542 15.41846813  1300,6818.795999999999,93.394,441.548,439.774,0.0
54099.0,STARLINK-5198,PAYLOAD,2022-12-15 10:00:00,15.4062212,0.0001377,53.2175,233.5685,112.177,64.1191,-0.030246,-0.01142271,0.0,0 STARLINK-5198,1 54099U 22136BA  22349.41667824 -.01142271  00000-0 -30246-1 0  9995,2 54099  53.2175 233.5685 0001377 112.1770  64.1191 15.40622120  9252,6822.409000000002,93.469,445.214,443.335,0.0
54099.0,STARLINK-5198,PAYLOAD,2022-12-15 14:00:01,15.40212144,0.0001067,53.2172,232.7826,96.1891,284.8734,-0.030537,-0.01137939,0.0,0 STARLINK-5198,1 54099U 22136BA  22349.58334491 -.01137939  00000-0 -30537-1 0  9992,2 54099  53.2172 232.7826 0001067  96.1891 284.8734 15.40212144  1301,6823.62,93.494,446.213,444.757,0.0
54099.0,STARLINK-5198,PAYLOAD,2022-12-15 22:00:00,15.39401168,0.0001158,53.2174,231.2154,85.5807,344.2757,-0.031483,-0.01141723,0.0,0 STARLINK-5198,1 54099U 22136BA  22349.91667824 -.01141723  00000-0 -31483-1 0  9995,2 54099  53.2174 231.2154 0001158  85.5807 344.2757 15.39401168  1301,6826.016,93.543,448.671,447.091,0.0
54099.0,STARLINK-5198,PAYLOAD,2022-12-16 08:00:01,15.38410263,0.000128,53.2163,229.2572,98.7354,120.7283,-0.033663,-0.01178057,0.0,0 STARLINK-5198,1 54099U 22136BA  22350.33334491 -.01178057  00000-0 -33663-1 0  9996,2 54099  53.2163 229.2572 0001280  98.7354 120.7283 15.38410263  9392,6828.946999999999,93.603,451.686,449.93800000000016,0.0
54099.0,STARLINK-5198,PAYLOAD,2022-12-16 14:00:01,15.37738063,0.0001254,53.2166,228.0825,93.8927,70.6399,-0.0317089999999999,-0.01093066,0.0,0 STARLINK-5198,1 54099U 22136BA  22350.58334491 -.01093066  00000-0 -31709-1 0  9998,2 54099  53.2166 228.0825 0001254  93.8927  70.6399 15.37738063  1300,6830.937,93.644,453.658,451.945,0.0
54099.0,STARLINK-5198,PAYLOAD,2022-12-16 22:00:00,15.36957514,0.0001361,53.2173,226.5199,91.9078,118.4708,-0.0339779999999999,-0.01137688,0.0,0 STARLINK-5198,1 54099U 22136BA  22350.91667824 -.01137688  00000-0 -33978-1 0  9993,2 54099  53.2173 226.5199 0001361  91.9078 118.4708 15.36957514  1308,6833.249,93.692,456.044,454.184,0.0
54099.0,STARLINK-5198,PAYLOAD,2022-12-17 14:00:01,15.35341281,0.0001203,53.2168,223.3985,95.8622,203.3669,-0.03634,-0.01153218,0.0,0 STARLINK-5198,1 54099U 22136BA  22351.58335648 -.01153218  00000-0 -36340-1 0  9996,2 54099  53.2168 223.3985 0001203  95.8622 203.3669 15.35341281  1300,6838.044,93.79,460.732,459.086,0.0
54099.0,STARLINK-5198,PAYLOAD,2022-12-17 22:00:00,15.34501457,0.0001288,53.2169,221.8424,110.6034,231.502,-0.036039,-0.01116621,0.0,0 STARLINK-5198,1 54099U 22136BA  22351.91667824 -.01116621  00000-0 -36039-1 0  9999,2 54099  53.2169 221.8424 0001288 110.6034 231.5020 15.34501457  1304,6840.5390000000025,93.842,463.285,461.523,0.0
54099.0,STARLINK-5198,PAYLOAD,2022-12-18 14:00:01,15.32888559,0.0001221,53.2173,218.7309,110.3183,314.706,-0.038679,-0.01136491,0.0,0 STARLINK-5198,1 54099U 22136BA  22352.58334491 -.01136491  00000-0 -38679-1 0  9993,2 54099  53.2173 218.7309 0001221 110.3183 314.7060 15.32888559  9748,6845.3359999999975,93.94,468.037,466.365,0.0
54099.0,STARLINK-5198,PAYLOAD,2022-12-18 22:00:00,15.32077136,0.0001291,53.2173,217.1814,77.2153,27.8023,-0.039818,-0.01140004,0.0,0 STARLINK-5198,1 54099U 22136BA  22352.91667824 -.01140004  00000-0 -39818-1 0  9990,2 54099  53.2173 217.1814 0001291  77.2153  27.8023 15.32077136  1303,6847.753000000002,93.99,470.502,468.734,0.0
54099.0,STARLINK-5198,PAYLOAD,2022-12-19 08:00:01,15.31060649,0.0001306,53.2175,215.2433,88.9558,154.6815,-0.041148,-0.0114094,0.0,0 STARLINK-5198,1 54099U 22136BA  22353.33334491 -.01140940  00000-0 -41148-1 0  9996,2 54099  53.2175 215.2433 0001306  88.9558 154.6815 15.31060649  9852,6850.784000000002,94.052,473.543,471.754,0.0
54099.0,STARLINK-5198,PAYLOAD,2022-12-19 12:00:00,15.30650854,0.0001174,53.2174,214.4686,81.28399999999998,1.3747,-0.041501,-0.01136455,0.0,0 STARLINK-5198,1 54099U 22136BA  22353.50001157 -.01136455  00000-0 -41501-1 0  9994,2 54099  53.2174 214.4686 0001174  81.2840   1.3747 15.30650854  1301,6852.005999999999,94.078,474.676,473.067,0.0
